CCSDS_OMM_VERS = 2.0
CREATION_DATE  = 
ORIGINATOR     = 

OBJECT_NAME    = ATLAS CENTAUR R/B
OBJECT_ID      = 1972-065B
CENTER_NAME    = EARTH
REF_FRAME      = TEME
TIME_SYSTEM    = UTC
MEAN_ELEMENT_THEORY = SGP/SGP4

EPOCH          = 2026-01-03T00:20:35.886336
MEAN_MOTION    = 14.77478769
ECCENTRICITY   = .0033911
INCLINATION    = 35.0029
RA_OF_ASC_NODE = 330.5727
ARG_OF_PERICENTER = 179.0849
MEAN_ANOMALY   = 180.9917

EPHEMERIS_TYPE = 0
CLASSIFICATION_TYPE = U
NORAD_CAT_ID   = 6155
ELEMENT_SET_NO = 999
REV_AT_EPOCH   = 83154
BSTAR          = .34688E-3
MEAN_MOTION_DOT = .2515E-4
MEAN_MOTION_DDOT = 0

CCSDS_OMM_VERS = 2.0
CREATION_DATE  = 
ORIGINATOR     = 

OBJECT_NAME    = SL-8 R/B
OBJECT_ID      = 1975-112B
CENTER_NAME    = EARTH
REF_FRAME      = TEME
TIME_SYSTEM    = UTC
MEAN_ELEMENT_THEORY = SGP/SGP4

EPOCH          = 2026-01-03T02:47:41.328384
MEAN_MOTION    = 14.38162773
ECCENTRICITY   = .001675
INCLINATION    = 74.0608
RA_OF_ASC_NODE = 139.5385
ARG_OF_PERICENTER = 248.9593
MEAN_ANOMALY   = 110.9770

EPHEMERIS_TYPE = 0
CLASSIFICATION_TYPE = U
NORAD_CAT_ID   = 8459
ELEMENT_SET_NO = 999
REV_AT_EPOCH   = 62244
BSTAR          = .19148E-3
MEAN_MOTION_DOT = .556E-5
MEAN_MOTION_DDOT = 0

CCSDS_OMM_VERS = 2.0
CREATION_DATE  = 
ORIGINATOR     = 

OBJECT_NAME    = SL-3 R/B
OBJECT_ID      = 1977-057B
CENTER_NAME    = EARTH
REF_FRAME      = TEME
TIME_SYSTEM    = UTC
MEAN_ELEMENT_THEORY = SGP/SGP4

EPOCH          = 2026-01-03T02:08:15.177120
MEAN_MOTION    = 15.43548221
ECCENTRICITY   = .0007874
INCLINATION    = 97.5687
RA_OF_ASC_NODE = 172.2585
ARG_OF_PERICENTER = 151.6465
MEAN_ANOMALY   = 208.5212

EPHEMERIS_TYPE = 0
CLASSIFICATION_TYPE = U
NORAD_CAT_ID   = 10114
ELEMENT_SET_NO = 999
REV_AT_EPOCH   = 65820
BSTAR          = .43559E-3
MEAN_MOTION_DOT = .19507E-3
MEAN_MOTION_DDOT = 0

CCSDS_OMM_VERS = 2.0
CREATION_DATE  = 
ORIGINATOR     = 

OBJECT_NAME    = SEASAT 1
OBJECT_ID      = 1978-064A
CENTER_NAME    = EARTH
REF_FRAME      = TEME
TIME_SYSTEM    = UTC
MEAN_ELEMENT_THEORY = SGP/SGP4

EPOCH          = 2026-01-02T20:24:21.744288
MEAN_MOTION    = 14.46090040
ECCENTRICITY   = .00012404
INCLINATION    = 108.0141
RA_OF_ASC_NODE = 347.3267
ARG_OF_PERICENTER = 261.8366
MEAN_ANOMALY   = 98.2639

EPHEMERIS_TYPE = 0
CLASSIFICATION_TYPE = U
NORAD_CAT_ID   = 10967
ELEMENT_SET_NO = 999
REV_AT_EPOCH   = 49699
BSTAR          = .28062955E-3
MEAN_MOTION_DOT = .866E-5
MEAN_MOTION_DDOT = 0

CCSDS_OMM_VERS = 2.0
CREATION_DATE  = 
ORIGINATOR     = 

OBJECT_NAME    = SL-14 R/B
OBJECT_ID      = 1979-011B
CENTER_NAME    = EARTH
REF_FRAME      = TEME
TIME_SYSTEM    = UTC
MEAN_ELEMENT_THEORY = SGP/SGP4

EPOCH          = 2026-01-02T22:00:12.699360
MEAN_MOTION    = 14.91804315
ECCENTRICITY   = .001469
INCLINATION    = 82.5245
RA_OF_ASC_NODE = 158.9595
ARG_OF_PERICENTER = 278.2203
MEAN_ANOMALY   = 81.7350

EPHEMERIS_TYPE = 0
CLASSIFICATION_TYPE = U
NORAD_CAT_ID   = 11267
ELEMENT_SET_NO = 999
REV_AT_EPOCH   = 51897
BSTAR          = .12423E-3
MEAN_MOTION_DOT = .128E-4
MEAN_MOTION_DDOT = 0

CCSDS_OMM_VERS = 2.0
CREATION_DATE  = 
ORIGINATOR     = 

OBJECT_NAME    = SL-8 R/B
OBJECT_ID      = 1979-089B
CENTER_NAME    = EARTH
REF_FRAME      = TEME
TIME_SYSTEM    = UTC
MEAN_ELEMENT_THEORY = SGP/SGP4

EPOCH          = 2026-01-02T23:48:08.789760
MEAN_MOTION    = 14.42298247
ECCENTRICITY   = .001498
INCLINATION    = 74.0673
RA_OF_ASC_NODE = 212.6458
ARG_OF_PERICENTER = 38.5364
MEAN_ANOMALY   = 321.6858

EPHEMERIS_TYPE = 0
CLASSIFICATION_TYPE = U
NORAD_CAT_ID   = 11574
ELEMENT_SET_NO = 999
REV_AT_EPOCH   = 42663
BSTAR          = .13281E-3
MEAN_MOTION_DOT = .413E-5
MEAN_MOTION_DDOT = 0

CCSDS_OMM_VERS = 2.0
CREATION_DATE  = 
ORIGINATOR     = 

OBJECT_NAME    = SL-14 R/B
OBJECT_ID      = 1980-005B
CENTER_NAME    = EARTH
REF_FRAME      = TEME
TIME_SYSTEM    = UTC
MEAN_ELEMENT_THEORY = SGP/SGP4

EPOCH          = 2026-01-03T02:06:47.432736
MEAN_MOTION    = 14.90824058
ECCENTRICITY   = .0016493
INCLINATION    = 82.5140
RA_OF_ASC_NODE = 9.4497
ARG_OF_PERICENTER = 27.5686
MEAN_ANOMALY   = 332.6404

EPHEMERIS_TYPE = 0
CLASSIFICATION_TYPE = U
NORAD_CAT_ID   = 11672
ELEMENT_SET_NO = 999
REV_AT_EPOCH   = 46671
BSTAR          = .11797E-3
MEAN_MOTION_DOT = .1188E-4
MEAN_MOTION_DDOT = 0

CCSDS_OMM_VERS = 2.0
CREATION_DATE  = 
ORIGINATOR     = 

OBJECT_NAME    = SL-8 R/B
OBJECT_ID      = 1981-003B
CENTER_NAME    = EARTH
REF_FRAME      = TEME
TIME_SYSTEM    = UTC
MEAN_ELEMENT_THEORY = SGP/SGP4

EPOCH          = 2026-01-02T23:31:11.737344
MEAN_MOTION    = 15.07871645
ECCENTRICITY   = .0275491
INCLINATION    = 82.9363
RA_OF_ASC_NODE = 350.6577
ARG_OF_PERICENTER = 47.4283
MEAN_ANOMALY   = 314.9837

EPHEMERIS_TYPE = 0
CLASSIFICATION_TYPE = U
NORAD_CAT_ID   = 12139
ELEMENT_SET_NO = 999
REV_AT_EPOCH   = 30476
BSTAR          = .84851E-3
MEAN_MOTION_DOT = .32139E-3
MEAN_MOTION_DDOT = 0

CCSDS_OMM_VERS = 2.0
CREATION_DATE  = 
ORIGINATOR     = 

OBJECT_NAME    = SL-3 R/B
OBJECT_ID      = 1981-046B
CENTER_NAME    = EARTH
REF_FRAME      = TEME
TIME_SYSTEM    = UTC
MEAN_ELEMENT_THEORY = SGP/SGP4

EPOCH          = 2026-01-03T03:19:37.758144
MEAN_MOTION    = 15.40141834
ECCENTRICITY   = .0017989
INCLINATION    = 81.2315
RA_OF_ASC_NODE = 8.3275
ARG_OF_PERICENTER = 244.9894
MEAN_ANOMALY   = 114.9480

EPHEMERIS_TYPE = 0
CLASSIFICATION_TYPE = U
NORAD_CAT_ID   = 12465
ELEMENT_SET_NO = 999
REV_AT_EPOCH   = 42833
BSTAR          = .45544E-3
MEAN_MOTION_DOT = .18404E-3
MEAN_MOTION_DDOT = 0

CCSDS_OMM_VERS = 2.0
CREATION_DATE  = 
ORIGINATOR     = 

OBJECT_NAME    = SL-3 R/B
OBJECT_ID      = 1981-103B
CENTER_NAME    = EARTH
REF_FRAME      = TEME
TIME_SYSTEM    = UTC
MEAN_ELEMENT_THEORY = SGP/SGP4

EPOCH          = 2026-01-03T02:46:17.313888
MEAN_MOTION    = 15.20539738
ECCENTRICITY   = .0013561
INCLINATION    = 81.1610
RA_OF_ASC_NODE = 290.3159
ARG_OF_PERICENTER = 140.6752
MEAN_ANOMALY   = 219.5467

EPHEMERIS_TYPE = 0
CLASSIFICATION_TYPE = U
NORAD_CAT_ID   = 12904
ELEMENT_SET_NO = 999
REV_AT_EPOCH   = 96326
BSTAR          = .46927E-3
MEAN_MOTION_DOT = .10319E-3
MEAN_MOTION_DDOT = 0

CCSDS_OMM_VERS = 2.0
CREATION_DATE  = 
ORIGINATOR     = 

OBJECT_NAME    = SL-3 R/B
OBJECT_ID      = 1982-013B
CENTER_NAME    = EARTH
REF_FRAME      = TEME
TIME_SYSTEM    = UTC
MEAN_ELEMENT_THEORY = SGP/SGP4

EPOCH          = 2026-01-03T03:40:25.159008
MEAN_MOTION    = 15.21306254
ECCENTRICITY   = .0023705
INCLINATION    = 81.1735
RA_OF_ASC_NODE = 237.5426
ARG_OF_PERICENTER = 42.1921
MEAN_ANOMALY   = 318.1129

EPHEMERIS_TYPE = 0
CLASSIFICATION_TYPE = U
NORAD_CAT_ID   = 13068
ELEMENT_SET_NO = 999
REV_AT_EPOCH   = 39438
BSTAR          = .29355E-3
MEAN_MOTION_DOT = .6642E-4
MEAN_MOTION_DDOT = 0

CCSDS_OMM_VERS = 2.0
CREATION_DATE  = 
ORIGINATOR     = 

OBJECT_NAME    = SL-3 R/B
OBJECT_ID      = 1982-039B
CENTER_NAME    = EARTH
REF_FRAME      = TEME
TIME_SYSTEM    = UTC
MEAN_ELEMENT_THEORY = SGP/SGP4

EPOCH          = 2026-01-03T02:45:54.760032
MEAN_MOTION    = 15.09678383
ECCENTRICITY   = .0029613
INCLINATION    = 81.1705
RA_OF_ASC_NODE = 291.5023
ARG_OF_PERICENTER = 179.7621
MEAN_ANOMALY   = 180.3624

EPHEMERIS_TYPE = 0
CLASSIFICATION_TYPE = U
NORAD_CAT_ID   = 13154
ELEMENT_SET_NO = 999
REV_AT_EPOCH   = 37174
BSTAR          = .34549E-3
MEAN_MOTION_DOT = .5643E-4
MEAN_MOTION_DDOT = 0

