ATLAS CENTAUR R/B       
1 06155U 72065B   26003.01430424  .00002515  00000+0  34688-3 0  9990
2 06155  35.0029 330.5727 0033911 179.0849 180.9917 14.77478769831546
SL-8 R/B                
1 08459U 75112B   26003.11645056  .00000556  00000+0  19148-3 0  9992
2 08459  74.0608 139.5385 0016750 248.9593 110.9770 14.38162773622441
SL-3 R/B                
1 10114U 77057B   26003.08906455  .00019507  00000+0  43559-3 0  9991
2 10114  97.5687 172.2585 0007874 151.6465 208.5212 15.43548221658201
SEASAT 1                
1 10967U 78064A   26002.85025167  .00000866  00000+0  28063-3 0  9993
2 10967 108.0141 347.3267 0001240 261.8366  98.2639 14.46090040496993
SL-14 R/B               
1 11267U 79011B   26002.91681365  .00001280  00000+0  12423-3 0  9999
2 11267  82.5245 158.9595 0014690 278.2203  81.7350 14.91804315518971
SL-8 R/B                
1 11574U 79089B   26002.99176840  .00000413  00000+0  13281-3 0  9990
2 11574  74.0673 212.6458 0014980  38.5364 321.6858 14.42298247426633
SL-14 R/B               
1 11672U 80005B   26003.08804899  .00001188  00000+0  11797-3 0  9992
2 11672  82.5140   9.4497 0016493  27.5686 332.6404 14.90824058466716
SL-8 R/B                
1 12139U 81003B   26002.97999696  .00032139  00000+0  84851-3 0  9998
2 12139  82.9363 350.6577 0275491  47.4283 314.9837 15.07871645304767
SL-3 R/B                
1 12465U 81046B   26003.13863146  .00018404  00000+0  45544-3 0  9991
2 12465  81.2315   8.3275 0017989 244.9894 114.9480 15.40141834428337
SL-3 R/B                
1 12904U 81103B   26003.11547817  .00010319  00000+0  46927-3 0  9998
2 12904  81.1610 290.3159 0013561 140.6752 219.5467 15.20539738963268
SL-3 R/B                
1 13068U 82013B   26003.15306897  .00006642  00000+0  29355-3 0  9996
2 13068  81.1735 237.5426 0023705  42.1921 318.1129 15.21306254394381
SL-3 R/B                
1 13154U 82039B   26003.11521713  .00005643  00000+0  34549-3 0  9993
2 13154  81.1705 291.5023 0029613 179.7621 180.3624 15.09678383371740
